1 54140U 22138AD 26162.15295294 -.00000038 00000+0 -12643-3 0 9995 
2 54140 87.9176 306.1588 0001690 96.0604 264.0722 13.19723941176014 
1 54141U 22138AE 26162.12028985 .00000058 00000+0 11095-3 0 9994 
2 54141 87.9192 275.6493 0002772 102.9744 257.1699 13.20770641178505 
1 54142U 22138AF 26162.03443577 .00000052 00000+0 96328-4 0 9990 
2 54142 87.9193 275.6636 0002446 120.3577 239.7798 13.20770837178493 
1 54143U 22138AG 26162.09608445 .00000039 00000+0 66158-4 0 9997 
2 54143 87.9170 306.1780 0001469 102.5095 257.6203 13.19725319176020 
1 54144U 22138AH 26162.12925904 .00000048 00000+0 87909-4 0 9991 
2 54144 87.9172 306.1718 0001743 101.1264 259.0065 13.19725363176001 
1 54145U 22138AJ 26162.13241335 .00000069 00000+0 14002-3 0 9998 
2 54145 87.9166 306.1808 0001613 99.5169 260.6146 13.19723949176023 
1 54146U 22138AK 26162.24824825 .00000040 00000+0 67575-4 0 9995 
2 54146 87.9189 275.6186 0002782 108.3971 251.7465 13.20771881178528 
1 54147U 22138AL 26162.08976538 -.00000022 00000+0 -86477-4 0 9991 
2 54147 87.9172 306.1730 0002156 96.4459 263.6919 13.19724966176039 
1 54148U 22138AM 26162.23476815 .00000009 00000+0 -91710-5 0 9993 
2 54148 87.9178 275.6444 0002851 112.4994 247.6442 13.20771061178511 
1 54642U 22166A 26162.25002315 -.00017252 00000+0 -41863-1 0 9994 
2 54642 87.9258 245.1791 0002173 100.1538 154.1756 13.21858442 5251 
1 54643U 22166B 26162.19744074 .00000074 00000+0 14797-3 0 9993 
2 54643 87.9275 245.1910 0000970 134.5407 225.5807 13.21671248170758 
1 54644U 22166C 26162.23531772 .00000039 00000+0 62511-4 0 9997 
2 54644 87.9261 245.1550 0002007 92.9105 267.2259 13.21826584170758 
1 54645U 22166D 26162.24218047 .00000074 00000+0 14760-3 0 9997 
2 54645 87.9254 245.1843 0002061 96.1338 264.0031 13.21826769170747 
1 54646U 22166E 26162.24540377 .00000040 00000+0 66012-4 0 9993 
2 54646 87.9263 245.1516 0002080 91.0560 269.0812 13.21827688170751 
1 54647U 22166F 26162.21007464 .00000019 00000+0 13546-4 0 9996 
2 54647 87.9253 245.1709 0002239 86.6295 273.5095 13.21827824170717 
1 54648U 22166G 26162.18484153 .00000113 00000+0 24092-3 0 9999 
2 54648 87.9254 245.1758 0002323 91.3699 268.7701 13.21827481170751 
1 54649U 22166H 26162.22690665 .00000098 00000+0 20641-3 0 9990 
2 54649 87.9254 245.1599 0002237 88.9406 271.1984 13.21826731170733 
1 54650U 22166J 26162.23867496 .00000093 00000+0 19284-3 0 9997 
2 54650 87.9254 245.1809 0002078 96.0746 264.0625 13.21827791170740 
1 54651U 22166K 26162.18315915 .00000080 00000+0 16295-3 0 9991 
2 54651 87.9252 245.1776 0002148 97.4468 262.6910 13.21825471170728 
1 54652U 22166L 26162.20672276 .00000028 00000+0 37236-4 0 9992 
2 54652 87.9257 245.1598 0001937 103.2278 256.9072 13.21826290170732 
1 54653U 22166M 26162.22015623 .00000039 00000+0 62456-4 0 9996 
2 54653 87.9253 245.1826 0002021 93.9534 266.1831 13.21824299170731 
1 54654U 22166N 26162.23024820 .00000074 00000+0 14759-3 0 9998 
2 54654 87.9264 245.1535 0001937 109.4141 250.7203 13.21824003170895 
1 54655U 22166P 26162.21679390 .00000010 00000+0 -61447-5 0 9994 
2 54655 87.9250 245.1692 0002574 82.5123 277.6303 13.21824242170753 
1 54656U 22166Q 26162.24190638 .00000108 00000+0 23103-3 0 9993 
2 54656 87.9263 245.1539 0002490 103.2560 256.8852 13.21827362170744 
1 54657U 22166R 26162.17812926 .00000088 00000+0 18118-3 0 9994 
2 54657 87.9253 245.1817 0002106 99.4331 260.7042 13.21826409170767 
1 54658U 22166S 26162.18148382 .00000120 00000+0 25822-3 0 9991 
2 54658 87.9265 245.1587 0002046 99.1544 260.9822 13.21827819170642 
1 54659U 22166T 26161.97624564 .00000028 00000+0 37457-4 0 9994 
2 54659 87.9255 245.2116 0001950 94.5769 265.5588 13.21827624170725 
1 54660U 22166U 26162.22352979 -.00000763 00000+0 -18800-2 0 9990 
2 54660 87.9256 245.1789 0002045 101.4001 258.7363 13.21817923170777 
1 54661U 22166V 26162.19998316 .00000036 00000+0 56376-4 0 9991 
2 54661 87.9261 245.1637 0002043 106.3647 253.7711 13.21827149170744 
1 54662U 22166W 26162.25045668 .00000119 00000+0 25759-3 0 9994 
2 54662 87.9256 245.1655 0002048 102.2603 257.8760 13.21827006170753 
