OBJECT_NAME,OBJECT_ID,EPOCH,MEAN_MOTION,ECCENTRICITY,INCLINATION,RA_OF_ASC_NODE,ARG_OF_PERICENTER,MEAN_ANOMALY,EPHEMERIS_TYPE,CLASSIFICATION_TYPE,NORAD_CAT_ID,ELEMENT_SET_NO,REV_AT_EPOCH,BSTAR,MEAN_MOTION_DOT,MEAN_MOTION_DDOT
ONEWEB-0522,2022-138AD,2026-06-11T03:40:15.134016,13.19723941,.00016901,87.9176,306.1588,96.0604,264.0722,0,U,54140,999,17601,-.12643338E-3,-.38E-6,0
ONEWEB-0523,2022-138AE,2026-06-11T02:53:13.043040,13.20770641,.00027728,87.9192,275.6493,102.9744,257.1699,0,U,54141,999,17850,.11094895E-3,.58E-6,0
ONEWEB-0524,2022-138AF,2026-06-11T00:49:35.250528,13.20770837,.00024467,87.9193,275.6636,120.3577,239.7798,0,U,54142,999,17849,.96327557E-4,.52E-6,0
ONEWEB-0525,2022-138AG,2026-06-11T02:18:21.696480,13.19725319,.00014692,87.9170,306.1780,102.5095,257.6203,0,U,54143,999,17602,.66157809E-4,.39E-6,0
ONEWEB-0526,2022-138AH,2026-06-11T03:06:07.981056,13.19725363,.00017434,87.9172,306.1718,101.1264,259.0065,0,U,54144,999,17600,.87908768E-4,.48E-6,0
ONEWEB-0529,2022-138AJ,2026-06-11T03:10:40.513440,13.19723949,.00016133,87.9166,306.1808,99.5169,260.6146,0,U,54145,999,17602,.14002068E-3,.69E-6,0
ONEWEB-0531,2022-138AK,2026-06-11T05:57:28.648800,13.20771881,.0002782,87.9189,275.6186,108.3971,251.7465,0,U,54146,999,17852,.67575404E-4,.4E-6,0
ONEWEB-0535,2022-138AL,2026-06-11T02:09:15.728832,13.19724966,.00021561,87.9172,306.1730,96.4459,263.6919,0,U,54147,999,17603,-.86476927E-4,-.22E-6,0
ONEWEB-0536,2022-138AM,2026-06-11T05:38:03.968160,13.20771061,.00028516,87.9178,275.6444,112.4994,247.6442,0,U,54148,999,17851,-.917105E-5,.9E-7,0
ONEWEB-0527,2022-166A,2026-06-11T06:00:02.000160,13.21858442,.00021738,87.9258,245.1791,100.1538,154.1756,0,U,54642,999,525,-.41862732E-1,-.17252E-3,0
ONEWEB-0528,2022-166B,2026-06-11T04:44:18.879936,13.21671248,.00009702,87.9275,245.1910,134.5407,225.5807,0,U,54643,999,17075,.14797349E-3,.74E-6,0
ONEWEB-0539,2022-166C,2026-06-11T05:38:51.451008,13.21826584,.00020077,87.9261,245.1550,92.9105,267.2259,0,U,54644,999,17075,.62510996E-4,.39E-6,0
ONEWEB-0540,2022-166D,2026-06-11T05:48:44.392608,13.21826769,.00020617,87.9254,245.1843,96.1338,264.0031,0,U,54645,999,17074,.14759995E-3,.74E-6,0
ONEWEB-0542,2022-166E,2026-06-11T05:53:22.885728,13.21827688,.00020808,87.9263,245.1516,91.0560,269.0812,0,U,54646,999,17075,.66011888E-4,.4E-6,0
ONEWEB-0545,2022-166F,2026-06-11T05:02:30.448896,13.21827824,.00022393,87.9253,245.1709,86.6295,273.5095,0,U,54647,999,17071,.13545743E-4,.19E-6,0
ONEWEB-0580,2022-166G,2026-06-11T04:26:10.308192,13.21827481,.00023235,87.9254,245.1758,91.3699,268.7701,0,U,54648,999,17075,.24092379E-3,.113E-5,0
ONEWEB-0582,2022-166H,2026-06-11T05:26:44.734560,13.21826731,.0002237,87.9254,245.1599,88.9406,271.1984,0,U,54649,999,17073,.20640933E-3,.98E-6,0
ONEWEB-0583,2022-166J,2026-06-11T05:43:41.516544,13.21827791,.00020783,87.9254,245.1809,96.0746,264.0625,0,U,54650,999,17074,.1928354E-3,.93E-6,0
ONEWEB-0584,2022-166K,2026-06-11T04:23:44.950560,13.21825471,.00021486,87.9252,245.1776,97.4468,262.6910,0,U,54651,999,17072,.16294948E-3,.8E-6,0
ONEWEB-0585,2022-166L,2026-06-11T04:57:40.846464,13.21826290,.0001937,87.9257,245.1598,103.2278,256.9072,0,U,54652,999,17073,.37236013E-4,.28E-6,0
ONEWEB-0586,2022-166M,2026-06-11T05:17:01.498272,13.21824299,.00020218,87.9253,245.1826,93.9534,266.1831,0,U,54653,999,17073,.62455679E-4,.39E-6,0
ONEWEB-0587,2022-166N,2026-06-11T05:31:33.444480,13.21824003,.00019376,87.9264,245.1535,109.4141,250.7203,0,U,54654,999,17089,.14759354E-3,.74E-6,0
ONEWEB-0589,2022-166P,2026-06-11T05:12:10.992960,13.21824242,.00025749,87.9250,245.1692,82.5123,277.6303,0,U,54655,999,17075,-.6144661E-5,.1E-6,0
ONEWEB-0590,2022-166Q,2026-06-11T05:48:20.711232,13.21827362,.00024901,87.9263,245.1539,103.2560,256.8852,0,U,54656,999,17074,.23103167E-3,.108E-5,0
ONEWEB-0591,2022-166R,2026-06-11T04:16:30.368064,13.21826409,.00021067,87.9253,245.1817,99.4331,260.7042,0,U,54657,999,17076,.18118459E-3,.88E-6,0
ONEWEB-0592,2022-166S,2026-06-11T04:21:20.202048,13.21827819,.00020465,87.9265,245.1587,99.1544,260.9822,0,U,54658,999,17064,.25821563E-3,.12E-5,0
ONEWEB-0593,2022-166T,2026-06-10T23:25:47.623296,13.21827624,.00019502,87.9255,245.2116,94.5769,265.5588,0,U,54659,999,17072,.3745662E-4,.28E-6,0
ONEWEB-0594,2022-166U,2026-06-11T05:21:52.973856,13.21817923,.00020458,87.9256,245.1789,101.4001,258.7363,0,U,54660,999,17077,-.18800107E-2,-.763E-5,0
ONEWEB-0595,2022-166V,2026-06-11T04:47:58.545024,13.21827149,.00020439,87.9261,245.1637,106.3647,253.7711,0,U,54661,999,17074,.5637569E-4,.36E-6,0
ONEWEB-0596,2022-166W,2026-06-11T06:00:39.457152,13.21827006,.00020487,87.9256,245.1655,102.2603,257.8760,0,U,54662,999,17075,.25758603E-3,.119E-5,0
